[{"OBJECT_NAME":"KUZGTU 1 (RS47S)","OBJECT_ID":"2023-091AV","EPOCH":"2026-03-09T22:22:51.965760","MEAN_MOTION":15.27481352,"ECCENTRICITY":0.0012896,"INCLINATION":97.5178,"RA_OF_ASC_NODE":132.5224,"ARG_OF_PERICENTER":89.3666,"MEAN_ANOMALY":270.9051,"EPHEMERIS_TYPE":0,"CLASSIFICATION_TYPE":"U","NORAD_CAT_ID":57217,"ELEMENT_SET_NO":999,"REV_AT_EPOCH":14921,"BSTAR":0.00057711473,"MEAN_MOTION_DOT":0.00015496,"MEAN_MOTION_DDOT":0},{"OBJECT_NAME":"STARLINK-30326","OBJECT_ID":"2023-122H","EPOCH":"2026-03-09T22:00:01.999584","MEAN_MOTION":15.27555681,"ECCENTRICITY":0.0001795,"INCLINATION":43.001,"RA_OF_ASC_NODE":91.2156,"ARG_OF_PERICENTER":255.5784,"MEAN_ANOMALY":30.5815,"EPHEMERIS_TYPE":0,"CLASSIFICATION_TYPE":"U","NORAD_CAT_ID":57639,"ELEMENT_SET_NO":999,"REV_AT_EPOCH":572,"BSTAR":0.0012865938,"MEAN_MOTION_DOT":0.00035286,"MEAN_MOTION_DDOT":0}]
